[{"OBJECT_NAME":"YAOGAN-30 05A","OBJECT_ID":"2018-011B","EPOCH":"2026-03-09T23:00:41.042304","MEAN_MOTION":15.02108706,"ECCENTRICITY":0.00040081,"INCLINATION":34.9973,"RA_OF_ASC_NODE":35.5053,"ARG_OF_PERICENTER":199.9129,"MEAN_ANOMALY":160.1423,"EPHEMERIS_TYPE":0,"CLASSIFICATION_TYPE":"U","NORAD_CAT_ID":43170,"ELEMENT_SET_NO":999,"REV_AT_EPOCH":44321,"BSTAR":0.00032465095,"MEAN_MOTION_DOT":4.327e-5,"MEAN_MOTION_DDOT":0},{"OBJECT_NAME":"ELECTRON KICK STAGE R\/B","OBJECT_ID":"2025-169B","EPOCH":"2026-03-08T18:46:24.954528","MEAN_MOTION":15.00375909,"ECCENTRICITY":0.00087281,"INCLINATION":42.0099,"RA_OF_ASC_NODE":207.6084,"ARG_OF_PERICENTER":269.0782,"MEAN_ANOMALY":90.9044,"EPHEMERIS_TYPE":0,"CLASSIFICATION_TYPE":"U","NORAD_CAT_ID":65117,"ELEMENT_SET_NO":999,"REV_AT_EPOCH":3234,"BSTAR":0.00071792459,"MEAN_MOTION_DOT":8.999e-5,"MEAN_MOTION_DDOT":0}]
